{
  "type": "FeatureCollection",
  "features": [
    {
      "type": "Feature",
      "properties": {
        "norad_id": 30683,
        "name": "FENGYUN 1C DEB",
        "group": "fengyun-1c-debris",
        "lat": 15.207407184256164,
        "lon": 3.073081631294313,
        "alt_km": 992.2301908876861,
        "timestamp": "2025-12-19T22:41:52.671309+00:00",
        "meta_object_name": "FENGYUN 1C DEB",
        "meta_object_id": "1999-025AQR",
        "meta_epoch": "2025-12-18T13:07:57.794880",
        "meta_mean_motion": 14.00406991,
        "meta_eccentricity": 0.01382693,
        "meta_inclination": 99.4277,
        "meta_ra_of_asc_node": 4.2199,
        "meta_arg_of_pericenter": 208.718,
        "meta_mean_anomaly": 319.606,
        "meta_ephemeris_type": 0,
        "meta_classification_type": "U",
        "meta_norad_cat_id": 30683,
        "meta_element_set_no": 999,
        "meta_rev_at_epoch": 95632,
        "meta_bstar": 0.00088653641,
        "meta_mean_motion_dot": 1.38e-05,
        "meta_mean_motion_ddot": 0,
        "tle_line1": "1 30683U 99025AQR 25352.54719670  .00001380  00000+0  88654-3 0  9996",
        "tle_line2": "2 30683  99.4277   4.2199 0138269 208.7180 319.6060 14.00406991956324"
      },
      "geometry": {
        "type": "Point",
        "coordinates": [
          3.073081631294313,
          15.207407184256164
        ]
      }
    },
    {
      "type": "Feature",
      "properties": {
        "norad_id": 30684,
        "name": "FENGYUN 1C DEB",
        "group": "fengyun-1c-debris",
        "lat": 39.883769691917685,
        "lon": 27.162392328121577,
        "alt_km": 1157.3447799160194,
        "timestamp": "2025-12-19T22:41:52.671319+00:00",
        "meta_object_name": "FENGYUN 1C DEB",
        "meta_object_id": "1999-025AQS",
        "meta_epoch": "2025-12-19T13:42:36.914112",
        "meta_mean_motion": 13.66819502,
        "meta_eccentricity": 0.0235663,
        "meta_inclination": 99.5311,
        "meta_ra_of_asc_node": 34.8638,
        "meta_arg_of_pericenter": 251.7531,
        "meta_mean_anomaly": 105.7838,
        "meta_ephemeris_type": 0,
        "meta_classification_type": "U",
        "meta_norad_cat_id": 30684,
        "meta_element_set_no": 999,
        "meta_rev_at_epoch": 93722,
        "meta_bstar": 0.00087836,
        "meta_mean_motion_dot": 8.41e-06,
        "meta_mean_motion_ddot": 0,
        "tle_line1": "1 30684U 99025AQS 25353.57126058  .00000841  00000+0  87836-3 0  9995",
        "tle_line2": "2 30684  99.5311  34.8638 0235663 251.7531 105.7838 13.66819502937228"
      },
      "geometry": {
        "type": "Point",
        "coordinates": [
          27.162392328121577,
          39.883769691917685
        ]
      }
    },
    {
      "type": "Feature",
      "properties": {
        "norad_id": 30686,
        "name": "FENGYUN 1C DEB",
        "group": "fengyun-1c-debris",
        "lat": -54.83206832139325,
        "lon": -4.385510840727979,
        "alt_km": 729.5257328650214,
        "timestamp": "2025-12-19T22:41:52.671329+00:00",
        "meta_object_name": "FENGYUN 1C DEB",
        "meta_object_id": "1999-025AQU",
        "meta_epoch": "2025-12-19T18:39:28.279296",
        "meta_mean_motion": 14.73946212,
        "meta_eccentricity": 0.0144121,
        "meta_inclination": 99.0325,
        "meta_ra_of_asc_node": 188.4751,
        "meta_arg_of_pericenter": 98.8013,
        "meta_mean_anomaly": 323.1573,
        "meta_ephemeris_type": 0,
        "meta_classification_type": "U",
        "meta_norad_cat_id": 30686,
        "meta_element_set_no": 999,
        "meta_rev_at_epoch": 99705,
        "meta_bstar": 0.00045474,
        "meta_mean_motion_dot": 3.457e-05,
        "meta_mean_motion_ddot": 0,
        "tle_line1": "1 30686U 99025AQU 25353.77741064  .00003457  00000+0  45474-3 0  9997",
        "tle_line2": "2 30686  99.0325 188.4751 0144121  98.8013 323.1573 14.73946212997052"
      },
      "geometry": {
        "type": "Point",
        "coordinates": [
          -4.385510840727979,
          -54.83206832139325
        ]
      }
    },
    {
      "type": "Feature",
      "properties": {
        "norad_id": 30688,
        "name": "FENGYUN 1C DEB",
        "group": "fengyun-1c-debris",
        "lat": -22.65184951290392,
        "lon": -116.31381671297675,
        "alt_km": 787.882312093916,
        "timestamp": "2025-12-19T22:41:52.671339+00:00",
        "meta_object_name": "FENGYUN 1C DEB",
        "meta_object_id": "1999-025AQW",
        "meta_epoch": "2025-12-19T11:46:02.580960",
        "meta_mean_motion": 14.32750629,
        "meta_eccentricity": 0.0015492,
        "meta_inclination": 98.7016,
        "meta_ra_of_asc_node": 66.8934,
        "meta_arg_of_pericenter": 294.1517,
        "meta_mean_anomaly": 81.0615,
        "meta_ephemeris_type": 0,
        "meta_classification_type": "U",
        "meta_norad_cat_id": 30688,
        "meta_element_set_no": 999,
        "meta_rev_at_epoch": 97357,
        "meta_bstar": 0.0011315,
        "meta_mean_motion_dot": 3.042e-05,
        "meta_mean_motion_ddot": 0,
        "tle_line1": "1 30688U 99025AQW 25353.49030765  .00003042  00000+0  11315-2 0  9993",
        "tle_line2": "2 30688  98.7016  66.8934 0015492 294.1517  81.0615 14.32750629973575"
      },
      "geometry": {
        "type": "Point",
        "coordinates": [
          -116.31381671297675,
          -22.65184951290392
        ]
      }
    },
    {
      "type": "Feature",
      "properties": {
        "norad_id": 30689,
        "name": "FENGYUN 1C DEB",
        "group": "fengyun-1c-debris",
        "lat": 13.743814337239577,
        "lon": -22.177832089861624,
        "alt_km": 824.4473328595359,
        "timestamp": "2025-12-19T22:41:52.671349+00:00",
        "meta_object_name": "FENGYUN 1C DEB",
        "meta_object_id": "1999-025AQX",
        "meta_epoch": "2025-12-18T23:06:53.505792",
        "meta_mean_motion": 14.11776074,
        "meta_eccentricity": 0.01118127,
        "meta_inclination": 98.7085,
        "meta_ra_of_asc_node": 339.0165,
        "meta_arg_of_pericenter": 85.7821,
        "meta_mean_anomaly": 338.1112,
        "meta_ephemeris_type": 0,
        "meta_classification_type": "U",
        "meta_norad_cat_id": 30689,
        "meta_element_set_no": 999,
        "meta_rev_at_epoch": 96978,
        "meta_bstar": 0.00031606575,
        "meta_mean_motion_dot": 5.69e-06,
        "meta_mean_motion_ddot": 0,
        "tle_line1": "1 30689U 99025AQX 25352.96311928  .00000569  00000+0  31607-3 0  9996",
        "tle_line2": "2 30689  98.7085 339.0165 0111812  85.7821 338.1112 14.11776074969783"
      },
      "geometry": {
        "type": "Point",
        "coordinates": [
          -22.177832089861624,
          13.743814337239577
        ]
      }
    },
    {
      "type": "Feature",
      "properties": {
        "norad_id": 30690,
        "name": "FENGYUN 1C DEB",
        "group": "fengyun-1c-debris",
        "lat": 0.7349566890154625,
        "lon": 104.49680413526464,
        "alt_km": 929.1933923666957,
        "timestamp": "2025-12-19T22:41:52.671359+00:00",
        "meta_object_name": "FENGYUN 1C DEB",
        "meta_object_id": "1999-025AQY",
        "meta_epoch": "2025-12-19T18:34:05.876832",
        "meta_mean_motion": 14.023529,
        "meta_eccentricity": 0.0105065,
        "meta_inclination": 99.1595,
        "meta_ra_of_asc_node": 284.2053,
        "meta_arg_of_pericenter": 56.8346,
        "meta_mean_anomaly": 333.076,
        "meta_ephemeris_type": 0,
        "meta_classification_type": "U",
        "meta_norad_cat_id": 30690,
        "meta_element_set_no": 999,
        "meta_rev_at_epoch": 95806,
        "meta_bstar": 0.0010429,
        "meta_mean_motion_dot": 1.635e-05,
        "meta_mean_motion_ddot": 0,
        "tle_line1": "1 30690U 99025AQY 25353.77367913  .00001635  00000+0  10429-2 0  9996",
        "tle_line2": "2 30690  99.1595 284.2053 0105065  56.8346 333.0760 14.02352900958067"
      },
      "geometry": {
        "type": "Point",
        "coordinates": [
          104.49680413526464,
          0.7349566890154625
        ]
      }
    },
    {
      "type": "Feature",
      "properties": {
        "norad_id": 30691,
        "name": "FENGYUN 1C DEB",
        "group": "fengyun-1c-debris",
        "lat": -19.72187939168434,
        "lon": -178.24464346147923,
        "alt_km": 836.344234023346,
        "timestamp": "2025-12-19T22:41:52.671369+00:00",
        "meta_object_name": "FENGYUN 1C DEB",
        "meta_object_id": "1999-025AQZ",
        "meta_epoch": "2025-12-19T12:06:44.537760",
        "meta_mean_motion": 13.89452394,
        "meta_eccentricity": 0.0139529,
        "meta_inclination": 98.7424,
        "meta_ra_of_asc_node": 4.5032,
        "meta_arg_of_pericenter": 214.5484,
        "meta_mean_anomaly": 300.6506,
        "meta_ephemeris_type": 0,
        "meta_classification_type": "U",
        "meta_norad_cat_id": 30691,
        "meta_element_set_no": 999,
        "meta_rev_at_epoch": 95210,
        "meta_bstar": 0.00090086,
        "meta_mean_motion_dot": 1.149e-05,
        "meta_mean_motion_ddot": 0,
        "tle_line1": "1 30691U 99025AQZ 25353.50468215  .00001149  00000+0  90086-3 0  9993",
        "tle_line2": "2 30691  98.7424   4.5032 0139529 214.5484 300.6506 13.89452394952101"
      },
      "geometry": {
        "type": "Point",
        "coordinates": [
          -178.24464346147923,
          -19.72187939168434
        ]
      }
    }
  ]
}